SILU-1 (SILKROAD 1)     
1 42903U 17021F   18250.29709862  .00028975  00000-0  18604-3 0  9991
2 42903  42.7753 189.4890 0013090 167.9599 323.2978 15.75528042 62861
MIRATA                  
1 43015U 17073C   18249.58900702  .00001659  00000-0  13553-3 0  9997
2 43015  97.7046 177.1951 0258085   6.8337 353.6284 14.78310934 43169
MAKERSAT 0              
1 43016U 17073D   18249.57432849  .00001112  00000-0  92259-4 0  9994
2 43016  97.7074 177.3264 0259471   6.9574 353.5128 14.78268364 43169
ASTERIA                 
1 43020U 98067NH  18250.19913110  .00011603  00000-0  14114-3 0  9995
2 43020  51.6423 321.8542 0002630 104.8426 255.2859 15.61043118 45299
DELLINGR (RBLE)         
1 43021U 98067NJ  18250.23102094  .00005400  00000-0  75700-4 0  9999
2 43021  51.6409 324.2763 0002643  99.6496 260.4796 15.58538452 45269
OSIRIS-3U               
1 43027U 98067NL  18250.18892474  .00031644  00000-0  27207-3 0  9994
2 43027  51.6373 314.1953 0003180  60.4138 299.7175 15.69033935 45275
AEROCUBE 7B             
1 43042U 17071F   18249.80365797  .00002978  00000-0  85181-4 0  9991
2 43042  51.6403   3.7707 0004837 196.2661 163.8169 15.39320319 42175
AEROCUBE 7C             
1 43043U 17071G   18249.86858662  .00003120  00000-0  88736-4 0  9995
2 43043  51.6402   3.4603 0004956 198.3317 161.7490 15.39322077 42155
CHEFSAT                 
1 43044U 17071H   18250.53618757  .00004488  00000-0  11852-3 0  9993
2 43044  51.6409 358.9541 0004868 200.7016 159.3772 15.40530329 42270
ASGARDIA 1              
1 43049U 17071N   18249.77769780  .00002631  00000-0  76123-4 0  9996
2 43049  51.6406   3.6130 0002270 213.4127 146.6715 15.39440835 42130
ISARA                   
1 43050U 17071P   18249.76921963  .00004178  00000-0  11183-3 0  9992
2 43050  51.6402   2.8226 0002213 209.9842 150.1016 15.40300381 42144
FAUNA                   
1 43052U 17071R   18249.62868681  .00002665  00000-0  76584-4 0  9992
2 43052  51.6408   4.1285 0002282 207.4449 152.6415 15.39599710 42115
CORVUS BC3              
1 43118U 18004H   18250.24064048  .00000611  00000-0  29566-4 0  9994
2 43118  97.5259 312.9647 0011149 160.0052 200.1623 15.22373326 36195
MICROMAS-2A             
1 43131U 18004W   18249.37881380  .00001479  00000-0  65792-4 0  9991
2 43131  97.5272 312.2947 0010184 164.8962 195.2581 15.23064854 36079
GOMX4-B                 
1 43196U 18015E   18250.49733676  .00000319  00000-0  16187-4 0  9999
2 43196  97.3556  17.7883 0017718 225.8479 134.1283 15.23732203 33067
GOMX4-A                 
1 43197U 18015F   18250.24743419  .00000431  00000-0  20817-4 0  9999
2 43197  97.3565  17.5474 0017993 227.0549 223.7716 15.23738135 33032
1KUNS-PF                
1 43466U 98067NP  18250.42250553  .00010281  00000-0  14473-3 0  9999
2 43466  51.6403 327.0458 0001026  41.8419 318.2651 15.57282494 18506
UBAKUSAT                
1 43467U 98067NQ  18250.43678482  .00006837  00000-0  10034-3 0  9997
2 43467  51.6408 327.1444 0003051  71.7112 288.4211 15.56786325 18512
BATSU-CS1 (IRAZU)       
1 43468U 98067NR  18250.21326185  .00011932  00000-0  16429-3 0  9990
2 43468  51.6405 327.8984 0001011  28.9564 331.1484 15.57705177118465
CUBERRT                 
1 43546U 98067NU  18249.77173359  .00007137  00000-0  10989-3 0  9996
2 43546  51.6404 331.6926 0005951 135.9079 224.2387 15.55377672  8529
TEMPEST-D               
1 43547U 98067NV  18250.22640480  .00002568  00000-0  44575-4 0  9995
2 43547  51.6408 329.4792 0006275 139.4042 220.7418 15.55063519  8279
HALOSAT                 
1 43549U 98067NX  18250.54785640  .00008996  00000-0  13724-3 0  9992
2 43549  51.6404 327.8765 0005943 148.2622 211.8728 15.55256426  8335
ENDUROSAT ONE           
1 43551U 98067NZ  18249.70227910  .00008966  00000-0  13494-3 0  9993
2 43551  51.6404 331.9790 0006202 154.0633 206.0670 15.55637127  8612
EQUISAT                 
1 43552U 98067PA  18250.21735272  .00007786  00000-0  11850-3 0  9990
2 43552  51.6405 329.4198 0006488 156.6089 203.5199 15.55547145  8659
AEROCUBE 12A            
1 43556U 18046C   18249.47686016  .00001898  00000-0  81794-4 0  9993
2 43556  51.6437 343.8188 0009062 130.2939 229.8834 15.27770485  7942
AEROCUBE 12B            
1 43557U 18046D   18249.73856039  .00001557  00000-0  69455-4 0  9999
2 43557  51.6436 342.5657 0009038 131.1573 229.0187 15.27757430  7933
UITMSAT-1               
1 43589U 98067PD  18250.43626987  .00008276  00000-0  12770-3 0  9993
2 43589  51.6405 328.6294 0005733 166.6673 193.4470 15.55071353  4422
MAYA-1                  
1 43590U 98067PE  18249.53609327  .00008242  00000-0  12714-3 0  9994
2 43590  51.6407 333.1176 0005878 164.4642 195.6531 15.55084664  4216
BHUTAN-1                
1 43591U 98067PF  18250.43509991  .00008318  00000-0  12799-3 0  9999
2 43591  51.6406 328.6218 0005933 168.9364 191.1759 15.55137707  4359
SIRIUSSAT 1             
1 43595U 98067PG  18250.25086640  .00007328  00000-0  11536-3 0  9992
2 43595  51.6406 329.6372 0003844 114.2240 245.9153 15.54718299  3503
SIRIUSSAT 2             
1 43596U 98067PH  18250.25281012  .00007163  00000-0  11347-3 0  9990
2 43596  51.6415 329.6528 0004463 118.4538 241.6903 15.54583919  3506
